start=new Date('2021-10-15T00:00:00.000Z').valueOf();
sats=[{"TIME_SYSTEM":"UTC","OBJECT_NAME":"STARLINK-1530","MEAN_ANOMALY":"281.9835","MEAN_ELEMENT_THEORY":"SGP4","CENTER_NAME":"EARTH","FILE":"3162173","SITE":"AFETR","BSTAR":"0.00001677700000","REF_FRAME":"TEME","CLASSIFICATION_TYPE":"U","DECAY_DATE":null,"ARG_OF_PERICENTER":"78.1358","NORAD_CAT_ID":"46049","LAUNCH_DATE":"2020-08-07","COUNTRY_CODE":"US","SEMIMAJOR_AXIS":"6925.351","OBJECT_TYPE":"PAYLOAD","MEAN_MOTION_DOT":"-0.00000032","REV_AT_EPOCH":"6626","PERIAPSIS":"545.958","ECCENTRICITY":"0.00018170","TLE_LINE1":"1 46049U 20055Y   21287.54235490 -.00000032  00000-0  16777-4 0  9995","RCS_SIZE":"LARGE","MEAN_MOTION":"15.06399238","GP_ID":"187147002","OBJECT_ID":"2020-055Y","EPHEMERIS_TYPE":"0","EPOCH":"2021-10-14T13:00:59.463360","APOAPSIS":"548.474","RA_OF_ASC_NODE":"131.3906","TLE_LINE2":"2 46049  53.0536 131.3906 0001817  78.1358 281.9835 15.06399238 66261","PERIOD":"95.592","INCLINATION":"53.0536","ELEMENT_SET_NO":"999","MEAN_MOTION_DDOT":"0.0000000000000"},{"MEAN_MOTION_DDOT":"0.0000000000000","ELEMENT_SET_NO":"999","PERIOD":"93.377","INCLINATION":"53.0520","RA_OF_ASC_NODE":"122.6731","TLE_LINE2":"2 46050  53.0520 122.6731 0002058  87.0769 273.0470 15.42127727 66953","EPOCH":"2021-10-14T21:31:38.265024","APOAPSIS":"441.236","OBJECT_ID":"2020-055Z","MEAN_MOTION":"15.42127727","GP_ID":"187187839","EPHEMERIS_TYPE":"0","ECCENTRICITY":"0.00020580","RCS_SIZE":"LARGE","TLE_LINE1":"1 46050U 20055Z   21287.89697066 -.00006121  00000-0 -13143-3 0  9995","PERIAPSIS":"438.430","MEAN_MOTION_DOT":"-0.00006121","REV_AT_EPOCH":"6695","OBJECT_TYPE":"PAYLOAD","NORAD_CAT_ID":"46050","LAUNCH_DATE":"2020-08-07","COUNTRY_CODE":"US","ARG_OF_PERICENTER":"87.0769","DECAY_DATE":null,"SEMIMAJOR_AXIS":"6817.968","SITE":"AFETR","FILE":"3163138","BSTAR":"-0.00013143000000","MEAN_ELEMENT_THEORY":"SGP4","CENTER_NAME":"EARTH","REF_FRAME":"TEME","CLASSIFICATION_TYPE":"U","OBJECT_NAME":"STARLINK-1535","MEAN_ANOMALY":"273.0470","TIME_SYSTEM":"UTC"},{"ELEMENT_SET_NO":"999","MEAN_MOTION_DDOT":"0.0000000000000","INCLINATION":"53.0530","PERIOD":"95.592","TLE_LINE2":"2 46051  53.0530 130.0350 0001670  62.3979 297.7179 15.06402185 66855","RA_OF_ASC_NODE":"130.0350","EPOCH":"2021-10-14T20:16:12.123264","APOAPSIS":"548.363","MEAN_MOTION":"15.06402185","GP_ID":"187188590","OBJECT_ID":"2020-055AA","EPHEMERIS_TYPE":"0","ECCENTRICITY":"0.00016700","RCS_SIZE":"LARGE","TLE_LINE1":"1 46051U 20055AA  21287.84458476 -.00000617  00000-0 -22552-4 0  9990","PERIAPSIS":"546.050","MEAN_MOTION_DOT":"-0.00000617","REV_AT_EPOCH":"6685","OBJECT_TYPE":"PAYLOAD","ARG_OF_PERICENTER":"62.3979","DECAY_DATE":null,"LAUNCH_DATE":"2020-08-07","COUNTRY_CODE":"US","NORAD_CAT_ID":"46051","SEMIMAJOR_AXIS":"6925.342","MEAN_ELEMENT_THEORY":"SGP4","CENTER_NAME":"EARTH","SITE":"AFETR","FILE":"3163138","BSTAR":"-0.00002255200000","CLASSIFICATION_TYPE":"U","REF_FRAME":"TEME","OBJECT_NAME":"STARLINK-1540","MEAN_ANOMALY":"297.7179","TIME_SYSTEM":"UTC"},{"EPOCH":"2021-10-14T19:54:59.272416","APOAPSIS":"548.216","MEAN_MOTION":"15.06391237","GP_ID":"187186838","OBJECT_ID":"2020-055AB","EPHEMERIS_TYPE":"0","ECCENTRICITY":"0.00014080","TLE_LINE1":"1 46052U 20055AB  21287.82985269 -.00000174  00000-0  72475-5 0  9991","RCS_SIZE":"LARGE","ELEMENT_SET_NO":"999","MEAN_MOTION_DDOT":"0.0000000000000","INCLINATION":"53.0527","PERIOD":"95.593","RA_OF_ASC_NODE":"130.0996","TLE_LINE2":"2 46052  53.0527 130.0996 0001408  82.8480 277.2669 15.06391237 66819","DECAY_DATE":null,"ARG_OF_PERICENTER":"82.8480","LAUNCH_DATE":"2020-08-07","NORAD_CAT_ID":"46052","COUNTRY_CODE":"US","SEMIMAJOR_AXIS":"6925.375","MEAN_ELEMENT_THEORY":"SGP4","CENTER_NAME":"EARTH","BSTAR":"0.00000724750000","FILE":"3163138","SITE":"AFETR","CLASSIFICATION_TYPE":"U","REF_FRAME":"TEME","OBJECT_NAME":"STARLINK-1541","MEAN_ANOMALY":"277.2669","TIME_SYSTEM":"UTC","PERIAPSIS":"546.265","MEAN_MOTION_DOT":"-0.00000174","REV_AT_EPOCH":"6681","OBJECT_TYPE":"PAYLOAD"},{"OBJECT_TYPE":"PAYLOAD","REV_AT_EPOCH":"6684","MEAN_MOTION_DOT":"0.00004743","PERIAPSIS":"546.090","TIME_SYSTEM":"UTC","MEAN_ANOMALY":"267.8125","OBJECT_NAME":"STARLINK-1543","CLASSIFICATION_TYPE":"U","REF_FRAME":"TEME","MEAN_ELEMENT_THEORY":"SGP4","CENTER_NAME":"EARTH","FILE":"3163138","SITE":"AFETR","BSTAR":"0.00033723000000","SEMIMAJOR_AXIS":"6925.405","DECAY_DATE":null,"ARG_OF_PERICENTER":"92.3059","NORAD_CAT_ID":"46053","LAUNCH_DATE":"2020-08-07","COUNTRY_CODE":"US","TLE_LINE2":"2 46053  53.0521 130.0806 0001704  92.3059 267.8125 15.06381600 66849","RA_OF_ASC_NODE":"130.0806","INCLINATION":"53.0521","PERIOD":"95.593","ELEMENT_SET_NO":"999","MEAN_MOTION_DDOT":"0.0000000000000","RCS_SIZE":"LARGE","TLE_LINE1":"1 46053U 20055AC  21287.83354854  .00004743  00000-0  33723-3 0  9999","ECCENTRICITY":"0.00017040","EPHEMERIS_TYPE":"0","GP_ID":"187187088","MEAN_MOTION":"15.06381600","OBJECT_ID":"2020-055AC","APOAPSIS":"548.450","EPOCH":"2021-10-14T20:00:18.593856"},{"PERIAPSIS":"546.157","REV_AT_EPOCH":"6684","MEAN_MOTION_DOT":"-0.00001309","OBJECT_TYPE":"PAYLOAD","SEMIMAJOR_AXIS":"6925.390","NORAD_CAT_ID":"46054","LAUNCH_DATE":"2020-08-07","COUNTRY_CODE":"US","ARG_OF_PERICENTER":"84.0975","DECAY_DATE":null,"CLASSIFICATION_TYPE":"U","REF_FRAME":"TEME","FILE":"3163138","BSTAR":"-0.00006904700000","SITE":"AFETR","CENTER_NAME":"EARTH","MEAN_ELEMENT_THEORY":"SGP4","MEAN_ANOMALY":"276.0195","OBJECT_NAME":"STARLINK-1548","TIME_SYSTEM":"UTC","MEAN_MOTION_DDOT":"0.0000000000000","ELEMENT_SET_NO":"999","PERIOD":"95.593","INCLINATION":"53.0541","TLE_LINE2":"2 46054  53.0541 130.0344 0001585  84.0975 276.0195 15.06386552 66841","RA_OF_ASC_NODE":"130.0344","APOAPSIS":"548.352","EPOCH":"2021-10-14T20:10:54.497856","EPHEMERIS_TYPE":"0","OBJECT_ID":"2020-055AD","MEAN_MOTION":"15.06386552","GP_ID":"187188340","TLE_LINE1":"1 46054U 20055AD  21287.84090854 -.00001309  00000-0 -69047-4 0  9994","RCS_SIZE":"LARGE","ECCENTRICITY":"0.00015850"},{"ECCENTRICITY":"0.00017900","RCS_SIZE":"LARGE","TLE_LINE1":"1 46055U 20055AE  21287.82617556 -.00001567  00000-0 -86346-4 0  9994","EPOCH":"2021-10-14T19:49:41.568384","APOAPSIS":"548.481","GP_ID":"187188090","MEAN_MOTION":"15.06390891","OBJECT_ID":"2020-055AE","EPHEMERIS_TYPE":"0","PERIOD":"95.593","INCLINATION":"53.0539","RA_OF_ASC_NODE":"130.1155","TLE_LINE2":"2 46055  53.0539 130.1155 0001790  83.9073 276.2120 15.06390891 66846","ELEMENT_SET_NO":"999","MEAN_MOTION_DDOT":"0.0000000000000","OBJECT_NAME":"STARLINK-1554","MEAN_ANOMALY":"276.2120","TIME_SYSTEM":"UTC","DECAY_DATE":null,"ARG_OF_PERICENTER":"83.9073","NORAD_CAT_ID":"46055","LAUNCH_DATE":"2020-08-07","COUNTRY_CODE":"US","SEMIMAJOR_AXIS":"6925.376","CENTER_NAME":"EARTH","MEAN_ELEMENT_THEORY":"SGP4","SITE":"AFETR","FILE":"3163138","BSTAR":"-0.00008634600000","CLASSIFICATION_TYPE":"U","REF_FRAME":"TEME","OBJECT_TYPE":"PAYLOAD","PERIAPSIS":"546.002","MEAN_MOTION_DOT":"-0.00001567","REV_AT_EPOCH":"6684"},{"MEAN_ANOMALY":"280.5666","OBJECT_NAME":"STARLINK-1561","TIME_SYSTEM":"UTC","SEMIMAJOR_AXIS":"6925.385","DECAY_DATE":null,"ARG_OF_PERICENTER":"79.5503","LAUNCH_DATE":"2020-08-07","NORAD_CAT_ID":"46056","COUNTRY_CODE":"US","CLASSIFICATION_TYPE":"U","REF_FRAME":"TEME","CENTER_NAME":"EARTH","MEAN_ELEMENT_THEORY":"SGP4","FILE":"3163138","BSTAR":"-0.00027774000000","SITE":"AFETR","OBJECT_TYPE":"PAYLOAD","PERIAPSIS":"546.147","REV_AT_EPOCH":"6685","MEAN_MOTION_DOT":"-0.00004415","TLE_LINE1":"1 46056U 20055AF  21287.84828520 -.00004415  00000-0 -27774-3 0  9996","RCS_SIZE":"LARGE","ECCENTRICITY":"0.00015930","APOAPSIS":"548.353","EPOCH":"2021-10-14T20:21:31.841280","EPHEMERIS_TYPE":"0","GP_ID":"187187339","MEAN_MOTION":"15.06388117","OBJECT_ID":"2020-055AF","PERIOD":"95.593","INCLINATION":"53.0524","TLE_LINE2":"2 46056  53.0524 130.0087 0001593  79.5503 280.5666 15.06388117 66856","RA_OF_ASC_NODE":"130.0087","ELEMENT_SET_NO":"999","MEAN_MOTION_DDOT":"0.0000000000000"},{"MEAN_MOTION_DOT":"-0.00000594","REV_AT_EPOCH":"6684","PERIAPSIS":"546.062","OBJECT_TYPE":"PAYLOAD","FILE":"3163138","BSTAR":"-0.00002098300000","SITE":"AFETR","MEAN_ELEMENT_THEORY":"SGP4","CENTER_NAME":"EARTH","CLASSIFICATION_TYPE":"U","REF_FRAME":"TEME","NORAD_CAT_ID":"46058","LAUNCH_DATE":"2020-08-07","COUNTRY_CODE":"US","ARG_OF_PERICENTER":"81.4397","DECAY_DATE":null,"SEMIMAJOR_AXIS":"6925.387","TIME_SYSTEM":"UTC","OBJECT_NAME":"STARLINK-1564","MEAN_ANOMALY":"278.6786","MEAN_MOTION_DDOT":"0.0000000000000","ELEMENT_SET_NO":"999","RA_OF_ASC_NODE":"129.9519","TLE_LINE2":"2 46058  53.0522 129.9519 0001719  81.4397 278.6786 15.06387340 66843","INCLINATION":"53.0522","PERIOD":"95.593","OBJECT_ID":"2020-055AH","MEAN_MOTION":"15.06387340","GP_ID":"187187589","EPHEMERIS_TYPE":"0","EPOCH":"2021-10-14T20:37:27.062400","APOAPSIS":"548.443","ECCENTRICITY":"0.00017190","TLE_LINE1":"1 46058U 20055AH  21287.85934100 -.00000594  00000-0 -20983-4 0  9991","RCS_SIZE":"LARGE"},{"REV_AT_EPOCH":"6680","MEAN_MOTION_DOT":"-0.00000980","PERIAPSIS":"546.057","OBJECT_TYPE":"PAYLOAD","REF_FRAME":"TEME","CLASSIFICATION_TYPE":"U","MEAN_ELEMENT_THEORY":"SGP4","CENTER_NAME":"EARTH","FILE":"3163138","BSTAR":"-0.00004692400000","SITE":"AFETR","SEMIMAJOR_AXIS":"6925.386","DECAY_DATE":null,"ARG_OF_PERICENTER":"75.1461","NORAD_CAT_ID":"46059","LAUNCH_DATE":"2020-08-07","COUNTRY_CODE":"US","TIME_SYSTEM":"UTC","MEAN_ANOMALY":"284.9719","OBJECT_NAME":"STARLINK-1570","ELEMENT_SET_NO":"999","MEAN_MOTION_DDOT":"0.0000000000000","RA_OF_ASC_NODE":"129.9324","TLE_LINE2":"2 46059  53.0524 129.9324 0001724  75.1461 284.9719 15.06387926 66800","INCLINATION":"53.0524","PERIOD":"95.593","EPHEMERIS_TYPE":"0","MEAN_MOTION":"15.06387926","GP_ID":"187187840","OBJECT_ID":"2020-055AJ","APOAPSIS":"548.444","EPOCH":"2021-10-14T20:48:04.204512","TLE_LINE1":"1 46059U 20055AJ  21287.86671533 -.00000980  00000-0 -46924-4 0  9993","RCS_SIZE":"LARGE","ECCENTRICITY":"0.00017240"}];
